{
  "norad_id": 67411,
  "name": "STARLINK-36503",
  "history": [
    {
      "epoch": "2026-03-28T19:42:55.027008Z",
      "apogee_km": 483.77423463392824,
      "perigee_km": 482.23459450049904,
      "latitude_deg": -1.1603640439641224e-05,
      "longitude_deg": 7.862994534713506,
      "height_km": 482.81241967859137,
      "semi_major_axis_km": 6861.141414567213,
      "eccentricity": 0.0001122,
      "inclination_deg": 43.0017,
      "raan_deg": 129.8287,
      "arg_perigee_deg": 267.6657,
      "mean_anomaly_deg": 92.4066,
      "mean_motion_rev_day": 15.27594922
    }
  ]
}