{"fetched_at":"2026-03-30T06:02:59Z","count":15439,"tles":[{"name":"STARLINK-36503","line1":"1 67411U 26005H   26087.82147022  .00030522  00000+0  11136-2 0  9996","line2":"2 67411  43.0017 129.8287 0001122 267.6657  92.4066 15.27594922 11621","category":"Starlink"}]}